H1 CPF 01  gfz 2021 07 28 00  7091 terrasarx 
H2 0702601  6201 31698    2021 07 28 00 59 42 2021 08 02 00 00 42   120 1 1  0 0 0
H9
10 0 59427  55422.000000  0    5350030.463   4302509.193    567715.122
10 0 59427  55542.000000  0    5354216.560   4078498.874   1462208.831
10 0 59427  55662.000000  0    5260254.691   3783966.473   2330955.886
10 0 59427  55782.000000  0    5068605.527   3425769.561   3158655.877
10 0 59427  55902.000000  0    4781582.845   3011865.845   3930738.088
10 0 59427  56022.000000  0    4403325.925   2551136.445   4633623.175
10 0 59427  56142.000000  0    3939736.721   2053193.772   5254962.936
10 0 59427  56262.000000  0    3398380.828   1528180.029   5783858.257
10 0 59427  56382.000000  0    2788355.831    986557.885   6211046.195
10 0 59427  56502.000000  0    2120132.179    438900.078   6529054.896
10 0 59427  56622.000000  0    1405370.017   -104315.831   6732327.567
10 0 59427  56742.000000  0     656713.475   -632906.900   6817316.013
10 0 59427  56862.000000  0    -112434.856  -1137175.805   6782538.531
10 0 59427  56982.000000  0    -888153.893  -1608088.089   6628603.357
10 0 59427  57102.000000  0   -1656255.368  -2037434.085   6358197.521
10 0 59427  57222.000000  0   -2402541.085  -2417971.412   5976041.869
10 0 59427  57342.000000  0   -3113064.094  -2743547.870   5488816.266
10 0 59427  57462.000000  0   -3774393.564  -3009204.457   4905050.571
10 0 59427  57582.000000  0   -4373873.597  -3211253.252   4234979.240
10 0 59427  57702.000000  0   -4899870.531  -3347329.186   3490365.631
10 0 59427  57822.000000  0   -5342004.768  -3416414.919   2684298.309
10 0 59427  57942.000000  0   -5691363.148  -3418839.088   1830961.610
10 0 59427  58062.000000  0   -5940685.399  -3356246.865    945381.861
10 0 59427  58182.000000  0   -6084518.662  -3231541.969     43156.047
10 0 59427  58302.000000  0   -6119337.122  -3048802.839   -859830.748
10 0 59427  58422.000000  0   -6043623.244  -2813174.664  -1747695.058
10 0 59427  58542.000000  0   -5857906.298  -2530739.148  -2604843.473
10 0 59427  58662.000000  0   -5564759.981  -2208367.241  -3416251.948
10 0 59427  58782.000000  0   -5168759.719  -1853558.462  -4167732.140
10 0 59427  58902.000000  0   -4676401.196  -1474270.836  -4846178.514
10 0 59427  59022.000000  0   -4095983.118  -1078745.870  -5439792.993
10 0 59427  59142.000000  0   -3437456.399   -675332.157  -5938282.548
10 0 59427  59262.000000  0   -2712245.032   -272312.311  -6333026.948
10 0 59427  59382.000000  0   -1933042.843    122263.296  -6617216.178
10 0 59427  59502.000000  0   -1113589.151    500732.425  -6785956.433
10 0 59427  59622.000000  0    -268429.187    855964.799  -6836344.815
10 0 59427  59742.000000  0     587338.312   1181492.912  -6767513.111
10 0 59427  59862.000000  0    1438323.195   1471625.753  -6580642.749
10 0 59427  59982.000000  0    2269115.469   1721547.035  -6278948.266
10 0 59427  60102.000000  0    3064559.419   1927394.678  -5867627.617
10 0 59427  60222.000000  0    3810026.594   2086320.071  -5353780.622
10 0 59427  60342.000000  0    4491683.626   2196527.142  -4746298.119
10 0 59427  60462.000000  0    5096752.890   2257290.746  -4055719.523
10 0 59427  60582.000000  0    5613758.304   2268952.757  -3294059.208
10 0 59427  60702.000000  0    6032751.450   2232896.078  -2474605.659
10 0 59427  60822.000000  0    6345514.729   2151497.084  -1611694.010
10 0 59427  60942.000000  0    6545732.912   2028056.617   -720454.648
10 0 59427  61062.000000  0    6629130.197   1866710.696    183455.618
10 0 59427  61182.000000  0    6593566.103   1672322.661   1084136.142
10 0 59427  61302.000000  0    6439089.822   1450360.781   1965728.344
10 0 59427  61422.000000  0    6167952.378   1206762.953   2812704.913
10 0 59427  61542.000000  0    5784571.788    947791.982   3610151.619
10 0 59427  61662.000000  0    5295455.217    679886.186   4344036.735
10 0 59427  61782.000000  0    4709079.198    409508.572   5001460.333
10 0 59427  61902.000000  0    4035734.046    142999.266   5570881.844
10 0 59427  62022.000000  0    3287332.419   -113567.291   6042320.742
10 0 59427  62142.000000  0    2477189.620   -354514.433   6407525.231
10 0 59427  62262.000000  0    1619781.644   -574683.725   6660110.763
10 0 59427  62382.000000  0     730482.865   -769541.967   6795666.961
10 0 59427  62502.000000  0    -174712.501   -935272.409   6811829.480
10 0 59427  62622.000000  0   -1079477.852  -1068848.439   6708317.480
10 0 59427  62742.000000  0   -1967447.466  -1168088.921   6486937.413
10 0 59427  62862.000000  0   -2822510.582  -1231693.419   6151552.782
10 0 59427  62982.000000  0   -3629102.844  -1259257.389   5708022.711
10 0 59427  63102.000000  0   -4372493.490  -1251268.294   5164106.955
10 0 59427  63222.000000  0   -5039060.489  -1209082.205   4529335.997
10 0 59427  63342.000000  0   -5616547.985  -1134880.073   3814848.262
10 0 59427  63462.000000  0   -6094299.726  -1031604.921   3033197.054
10 0 59427  63582.000000  0   -6463464.654   -902881.445   2198131.934
10 0 59427  63702.000000  0   -6717172.295   -752919.802   1324355.478
10 0 59427  63822.000000  0   -6850669.024   -586405.632    427257.745
10 0 59427  63942.000000  0   -6861411.369   -408379.083   -477362.850
10 0 59427  64062.000000  0   -6749115.400   -224105.775  -1373586.820
10 0 59427  64182.000000  0   -6515759.344    -38943.099  -2245662.297
10 0 59427  64302.000000  0   -6165542.861    141793.836  -3078287.825
10 0 59427  64422.000000  0   -5704802.096    312964.645  -3856887.186
10 0 59427  64542.000000  0   -5141881.600    469730.524  -4567865.962
10 0 59427  64662.000000  0   -4486969.899    607671.921  -5198846.022
10 0 59427  64782.000000  0   -3751902.653    722895.187  -5738873.993
10 0 59427  64902.000000  0   -2949939.016    812124.833  -6178601.883
10 0 59427  65022.000000  0   -2095516.355    872780.138  -6510436.642
10 0 59427  65142.000000  0   -1203988.900    903035.835  -6728660.411
10 0 59427  65262.000000  0    -291353.088    901865.466  -6829518.218
10 0 59427  65382.000000  0     626033.094    869066.426  -6811274.292
10 0 59427  65502.000000  0    1531735.128    805266.670  -6674240.825
10 0 59427  65622.000000  0    2409530.992    711913.157  -6420774.408
10 0 59427  65742.000000  0    3243696.128    591242.230  -6055239.572
10 0 59427  65862.000000  0    4019281.507    446232.137  -5583940.613
10 0 59427  65982.000000  0    4722380.101    280537.560  -5015023.405
10 0 59427  66102.000000  0    5340379.959     98408.657  -4358346.635
10 0 59427  66222.000000  0    5862198.088    -95405.433  -3625321.036
10 0 59427  66342.000000  0    6278488.720   -295766.458  -2828719.701
10 0 59427  66462.000000  0    6581823.329   -497268.350  -1982461.929
10 0 59427  66582.000000  0    6766836.439   -694367.124  -1101371.307
10 0 59427  66702.000000  0    6830331.907   -881515.855   -200913.908
10 0 59427  66822.000000  0    6771347.582  -1053302.046    703078.058
10 0 59427  66942.000000  0    6591175.384  -1204583.821   1594692.489
10 0 59427  67062.000000  0    6293336.550  -1330621.591   2458226.198
10 0 59427  67182.000000  0    5883510.326  -1427200.651   3278471.412
10 0 59427  67302.000000  0    5369419.621  -1490742.173   4040990.083
10 0 59427  67422.000000  0    4760677.159  -1518400.824   4732372.573
10 0 59427  67542.000000  0    4068595.956  -1508144.646   5340474.686
10 0 59427  67662.000000  0    3305970.021  -1458816.192   5854629.985
10 0 59427  67782.000000  0    2486828.666  -1370174.692   6265833.174
10 0 59427  67902.000000  0    1626172.298  -1242917.987   6566891.786
10 0 59427  68022.000000  0     739693.358  -1078684.074   6752546.724
10 0 59427  68142.000000  0    -156512.600   -880031.123   6819558.263
10 0 59427  68262.000000  0   -1046239.050   -650397.469   6766757.637
10 0 59427  68382.000000  0   -1913459.988   -394042.255   6595065.688
10 0 59427  68502.000000  0   -2742616.998   -115966.887   6307477.848
10 0 59427  68622.000000  0   -3518898.053    178181.204   5909016.321
10 0 59427  68742.000000  0   -4228504.709    482220.866   5406648.496
10 0 59427  68862.000000  0   -4858902.505    789563.894   4809171.064
10 0 59427  68982.000000  0   -5399049.838   1093353.942   4127061.794
10 0 59427  69102.000000  0   -5839599.955   1386615.136   3372299.154
10 0 59427  69222.000000  0   -6173071.517   1662406.993   2558154.049
10 0 59427  69342.000000  0   -6393984.879   1913982.090   1698955.862
10 0 59427  69462.000000  0   -6498960.396   2134942.979    809836.573
10 0 59427  69582.000000  0   -6486774.536   2319394.600    -93543.280
10 0 59427  69702.000000  0   -6358371.772   2462086.934   -995279.198
10 0 59427  69822.000000  0   -6116832.768   2558545.016  -1879511.497
10 0 59427  69942.000000  0   -5767300.290   2605183.661  -2730712.576
10 0 59427  70062.000000  0   -5316862.810   2599403.168  -3533966.654
10 0 59427  70182.000000  0   -4774400.737   2539663.008  -4275233.758
10 0 59427  70302.000000  0   -4150400.680   2425533.080  -4941593.765
10 0 59427  70422.000000  0   -3456742.208   2257721.705  -5521465.717
10 0 59427  70542.000000  0   -2706464.368   2038080.645  -6004799.667
10 0 59427  70662.000000  0   -1913516.235   1769587.096  -6383241.212
10 0 59427  70782.000000  0   -1092494.515   1456302.586  -6650264.277
10 0 59427  70902.000000  0    -258377.106   1103310.604  -6801271.939
10 0 59427  71022.000000  0     573744.787    716634.347  -6833666.382
10 0 59427  71142.000000  0    1388932.334    303136.189  -6746890.356
10 0 59427  71262.000000  0    2172662.528   -129601.744  -6542436.254
10 0 59427  71382.000000  0    2911080.806   -573412.858  -6223822.619
10 0 59427  71502.000000  0    3591242.905  -1019695.789  -5796540.217
10 0 59427  71622.000000  0    4201339.930  -1459575.996  -5267966.265
10 0 59427  71742.000000  0    4730906.412  -1884078.537  -4647249.447
10 0 59427  71862.000000  0    5171005.948  -2284308.750  -3945162.367
99
